start=new Date('2022-11-24T00:00:00.000Z').valueOf();
sats=[{"EPOCH":"2022-11-23T08:16:22.160352","MEAN_MOTION_DOT":"-0.00003461","MEAN_MOTION":"15.08821035","TLE_LINE2":"2 53021  53.2210  81.6467 0001847  24.6716 335.4364 15.08821035 21479","SEMIMAJOR_AXIS":"6917.938","OBJECT_TYPE":"PAYLOAD","GP_ID":"218546536","RA_OF_ASC_NODE":"81.6467","EPHEMERIS_TYPE":"0","REF_FRAME":"TEME","CLASSIFICATION_TYPE":"U","FILE":"3668134","PERIOD":"95.439","OBJECT_NAME":"STARLINK-4203","TIME_SYSTEM":"UTC","MEAN_ANOMALY":"335.4364","ECCENTRICITY":"0.00018470","OBJECT_ID":"2022-076AM","REV_AT_EPOCH":"2147","MEAN_MOTION_DDOT":"0.0000000000000","DECAY_DATE":null,"CENTER_NAME":"EARTH","COUNTRY_CODE":"US","BSTAR":"-0.00019955000000","ARG_OF_PERICENTER":"24.6716","INCLINATION":"53.2210","LAUNCH_DATE":"2022-07-07","RCS_SIZE":"LARGE","NORAD_CAT_ID":"53021","PERIAPSIS":"538.526","ELEMENT_SET_NO":"999","SITE":"AFETR","MEAN_ELEMENT_THEORY":"SGP4","TLE_LINE1":"1 53021U 22076AM  22327.34470093 -.00003461  00000-0 -19955-3 0  9992","APOAPSIS":"541.081"},{"ELEMENT_SET_NO":"999","PERIAPSIS":"538.277","SITE":"AFETR","MEAN_ELEMENT_THEORY":"SGP4","TLE_LINE1":"1 53022U 22076AN  22327.62067849 -.00000299  00000-0 -68530-6 0  9997","APOAPSIS":"541.240","COUNTRY_CODE":"US","BSTAR":"-0.00000068530000","ARG_OF_PERICENTER":"39.1537","INCLINATION":"53.2190","LAUNCH_DATE":"2022-07-07","RCS_SIZE":"LARGE","NORAD_CAT_ID":"53022","PERIOD":"95.438","TIME_SYSTEM":"UTC","OBJECT_NAME":"STARLINK-4216","ECCENTRICITY":"0.00021420","MEAN_ANOMALY":"320.9609","OBJECT_ID":"2022-076AN","REV_AT_EPOCH":"2151","MEAN_MOTION_DDOT":"0.0000000000000","CENTER_NAME":"EARTH","DECAY_DATE":null,"EPOCH":"2022-11-23T14:53:46.621536","MEAN_MOTION":"15.08835730","MEAN_MOTION_DOT":"-0.00000299","TLE_LINE2":"2 53022  53.2190  80.4168 0002142  39.1537 320.9609 15.08835730 21516","SEMIMAJOR_AXIS":"6917.893","OBJECT_TYPE":"PAYLOAD","EPHEMERIS_TYPE":"0","GP_ID":"218603872","RA_OF_ASC_NODE":"80.4168","REF_FRAME":"TEME","CLASSIFICATION_TYPE":"U","FILE":"3668355"},{"SITE":"AFETR","TLE_LINE1":"1 53023U 22076AP  22327.80195108 -.00000429  00000-0 -88437-5 0  9990","MEAN_ELEMENT_THEORY":"SGP4","APOAPSIS":"540.889","PERIAPSIS":"538.609","ELEMENT_SET_NO":"999","RCS_SIZE":"LARGE","NORAD_CAT_ID":"53023","COUNTRY_CODE":"US","BSTAR":"-0.00000884370000","ARG_OF_PERICENTER":"51.1542","INCLINATION":"53.2179","LAUNCH_DATE":"2022-07-07","REV_AT_EPOCH":"2154","MEAN_MOTION_DDOT":"0.0000000000000","CENTER_NAME":"EARTH","DECAY_DATE":null,"PERIOD":"95.438","TIME_SYSTEM":"UTC","OBJECT_NAME":"STARLINK-4284","ECCENTRICITY":"0.00016480","MEAN_ANOMALY":"308.9597","OBJECT_ID":"2022-076AP","OBJECT_TYPE":"PAYLOAD","RA_OF_ASC_NODE":"79.5908","GP_ID":"218603389","EPHEMERIS_TYPE":"0","REF_FRAME":"TEME","CLASSIFICATION_TYPE":"U","FILE":"3668355","EPOCH":"2022-11-23T19:14:48.573312","MEAN_MOTION_DOT":"-0.00000429","MEAN_MOTION":"15.08838894","TLE_LINE2":"2 53023  53.2179  79.5908 0001648  51.1542 308.9597 15.08838894 21544","SEMIMAJOR_AXIS":"6917.884"},{"ELEMENT_SET_NO":"999","PERIAPSIS":"538.505","TLE_LINE1":"1 53024U 22076AQ  22327.34099432 -.00000180  00000-0  67977-5 0  9992","MEAN_ELEMENT_THEORY":"SGP4","APOAPSIS":"541.010","SITE":"AFETR","LAUNCH_DATE":"2022-07-07","INCLINATION":"53.2186","ARG_OF_PERICENTER":"50.5296","BSTAR":"0.00000679770000","COUNTRY_CODE":"US","NORAD_CAT_ID":"53024","RCS_SIZE":"LARGE","OBJECT_ID":"2022-076AQ","MEAN_ANOMALY":"309.5856","ECCENTRICITY":"0.00018100","OBJECT_NAME":"STARLINK-4289","TIME_SYSTEM":"UTC","PERIOD":"95.438","CENTER_NAME":"EARTH","DECAY_DATE":null,"MEAN_MOTION_DDOT":"0.0000000000000","REV_AT_EPOCH":"2147","SEMIMAJOR_AXIS":"6917.892","TLE_LINE2":"2 53024  53.2186  81.6587 0001810  50.5296 309.5856 15.08836073 21474","MEAN_MOTION_DOT":"-0.00000180","MEAN_MOTION":"15.08836073","EPOCH":"2022-11-23T08:11:01.909248","FILE":"3668134","CLASSIFICATION_TYPE":"U","REF_FRAME":"TEME","GP_ID":"218546022","RA_OF_ASC_NODE":"81.6587","EPHEMERIS_TYPE":"0","OBJECT_TYPE":"PAYLOAD"},{"REV_AT_EPOCH":"2151","MEAN_MOTION_DDOT":"0.0000000000000","CENTER_NAME":"EARTH","DECAY_DATE":null,"PERIOD":"95.438","OBJECT_NAME":"STARLINK-4218","TIME_SYSTEM":"UTC","ECCENTRICITY":"0.00019740","MEAN_ANOMALY":"315.5867","OBJECT_ID":"2022-076AR","OBJECT_TYPE":"PAYLOAD","GP_ID":"218603717","EPHEMERIS_TYPE":"0","RA_OF_ASC_NODE":"80.5073","REF_FRAME":"TEME","CLASSIFICATION_TYPE":"U","FILE":"3668355","EPOCH":"2022-11-23T14:21:58.995936","MEAN_MOTION_DOT":"-0.00000043","MEAN_MOTION":"15.08832291","TLE_LINE2":"2 53025  53.2199  80.5073 0001974  44.5284 315.5867 15.08832291 21510","SEMIMAJOR_AXIS":"6917.904","SITE":"AFETR","TLE_LINE1":"1 53025U 22076AR  22327.59859949 -.00000043  00000-0  15413-4 0  9992","APOAPSIS":"541.135","MEAN_ELEMENT_THEORY":"SGP4","PERIAPSIS":"538.403","ELEMENT_SET_NO":"999","RCS_SIZE":"LARGE","NORAD_CAT_ID":"53025","COUNTRY_CODE":"US","BSTAR":"0.00001541300000","ARG_OF_PERICENTER":"44.5284","INCLINATION":"53.2199","LAUNCH_DATE":"2022-07-07"},{"ELEMENT_SET_NO":"999","PERIAPSIS":"538.473","SITE":"AFETR","TLE_LINE1":"1 53026U 22076AS  22327.61331625  .00001742  00000-0  12752-3 0  9990","MEAN_ELEMENT_THEORY":"SGP4","APOAPSIS":"541.046","COUNTRY_CODE":"US","BSTAR":"0.00012752000000","INCLINATION":"53.2195","ARG_OF_PERICENTER":"45.4406","LAUNCH_DATE":"2022-07-07","NORAD_CAT_ID":"53026","RCS_SIZE":"LARGE","PERIOD":"95.438","MEAN_ANOMALY":"314.6738","ECCENTRICITY":"0.00018600","OBJECT_NAME":"STARLINK-4119","TIME_SYSTEM":"UTC","OBJECT_ID":"2022-076AS","REV_AT_EPOCH":"2151","CENTER_NAME":"EARTH","DECAY_DATE":null,"MEAN_MOTION_DDOT":"0.0000000000000","EPOCH":"2022-11-23T14:43:10.524000","MEAN_MOTION_DOT":"0.00001742","MEAN_MOTION":"15.08835394","SEMIMAJOR_AXIS":"6917.894","TLE_LINE2":"2 53026  53.2195  80.4393 0001860  45.4406 314.6738 15.08835394 21515","OBJECT_TYPE":"PAYLOAD","REF_FRAME":"TEME","GP_ID":"218604192","RA_OF_ASC_NODE":"80.4393","EPHEMERIS_TYPE":"0","FILE":"3668355","CLASSIFICATION_TYPE":"U"},{"BSTAR":"0.00006307500000","COUNTRY_CODE":"US","LAUNCH_DATE":"2022-07-07","ARG_OF_PERICENTER":"70.2034","INCLINATION":"53.2210","RCS_SIZE":"LARGE","NORAD_CAT_ID":"53027","ELEMENT_SET_NO":"999","PERIAPSIS":"538.678","MEAN_ELEMENT_THEORY":"SGP4","TLE_LINE1":"1 53027U 22076AT  22327.78627056  .00000716  00000-0  63075-4 0  9990","APOAPSIS":"540.791","SITE":"AFETR","MEAN_MOTION_DOT":"0.00000716","MEAN_MOTION":"15.08843581","EPOCH":"2022-11-23T18:52:13.776384","TLE_LINE2":"2 53027  53.2210  79.6579 0001527  70.2034 289.9123 15.08843581 21545","SEMIMAJOR_AXIS":"6917.869","OBJECT_TYPE":"PAYLOAD","CLASSIFICATION_TYPE":"U","FILE":"3668355","GP_ID":"218603056","RA_OF_ASC_NODE":"79.6579","EPHEMERIS_TYPE":"0","REF_FRAME":"TEME","PERIOD":"95.437","OBJECT_ID":"2022-076AT","TIME_SYSTEM":"UTC","OBJECT_NAME":"STARLINK-4158","MEAN_ANOMALY":"289.9123","ECCENTRICITY":"0.00015270","REV_AT_EPOCH":"2154","MEAN_MOTION_DDOT":"0.0000000000000","CENTER_NAME":"EARTH","DECAY_DATE":null},{"OBJECT_TYPE":"PAYLOAD","GP_ID":"218578005","RA_OF_ASC_NODE":"71.2210","EPHEMERIS_TYPE":"0","REF_FRAME":"TEME","CLASSIFICATION_TYPE":"U","FILE":"3668347","EPOCH":"2022-11-23T10:35:25.940544","MEAN_MOTION_DOT":"-0.00000026","MEAN_MOTION":"15.08840297","TLE_LINE2":"2 53029  53.2158  71.2210 0001355  70.7854 289.3285 15.08840297 22097","SEMIMAJOR_AXIS":"6917.879","REV_AT_EPOCH":"2209","MEAN_MOTION_DDOT":"0.0000000000000","CENTER_NAME":"EARTH","DECAY_DATE":null,"PERIOD":"95.438","OBJECT_NAME":"STARLINK-4143","TIME_SYSTEM":"UTC","ECCENTRICITY":"0.00013550","MEAN_ANOMALY":"289.3285","OBJECT_ID":"2022-076AV","RCS_SIZE":"LARGE","NORAD_CAT_ID":"53029","COUNTRY_CODE":"US","BSTAR":"0.00001648700000","ARG_OF_PERICENTER":"70.7854","INCLINATION":"53.2158","LAUNCH_DATE":"2022-07-07","SITE":"AFETR","APOAPSIS":"540.682","TLE_LINE1":"1 53029U 22076AV  22327.44127246 -.00000026  00000-0  16487-4 0  9991","MEAN_ELEMENT_THEORY":"SGP4","ELEMENT_SET_NO":"999","PERIAPSIS":"538.807"},{"OBJECT_TYPE":"PAYLOAD","RA_OF_ASC_NODE":"79.6271","GP_ID":"218604036","EPHEMERIS_TYPE":"0","REF_FRAME":"TEME","CLASSIFICATION_TYPE":"U","FILE":"3668355","EPOCH":"2022-11-23T19:02:50.266176","MEAN_MOTION_DOT":"-0.00000754","MEAN_MOTION":"15.08832433","TLE_LINE2":"2 53030  53.2200  79.6271 0001411  64.2117 295.9021 15.08832433 21542","SEMIMAJOR_AXIS":"6917.904","REV_AT_EPOCH":"2154","MEAN_MOTION_DDOT":"0.0000000000000","CENTER_NAME":"EARTH","DECAY_DATE":null,"PERIOD":"95.438","TIME_SYSTEM":"UTC","OBJECT_NAME":"STARLINK-4160","MEAN_ANOMALY":"295.9021","ECCENTRICITY":"0.00014110","OBJECT_ID":"2022-076AW","RCS_SIZE":"MEDIUM","NORAD_CAT_ID":"53030","COUNTRY_CODE":"US","BSTAR":"-0.00002927800000","ARG_OF_PERICENTER":"64.2117","INCLINATION":"53.2200","LAUNCH_DATE":"2022-07-07","SITE":"AFETR","TLE_LINE1":"1 53030U 22076AW  22327.79363734 -.00000754  00000-0 -29278-4 0  9996","MEAN_ELEMENT_THEORY":"SGP4","APOAPSIS":"540.745","ELEMENT_SET_NO":"999","PERIAPSIS":"538.792"},{"SEMIMAJOR_AXIS":"6917.913","TLE_LINE2":"2 53031  53.2191  70.6826 0001527  50.7791 309.3336 15.08829250 21648","EPOCH":"2022-11-23T13:30:19.053792","MEAN_MOTION_DOT":"-0.00000030","MEAN_MOTION":"15.08829250","REF_FRAME":"TEME","EPHEMERIS_TYPE":"0","GP_ID":"218603873","RA_OF_ASC_NODE":"70.6826","FILE":"3668355","CLASSIFICATION_TYPE":"U","OBJECT_TYPE":"PAYLOAD","ECCENTRICITY":"0.00015270","MEAN_ANOMALY":"309.3336","TIME_SYSTEM":"UTC","OBJECT_NAME":"STARLINK-4137","OBJECT_ID":"2022-076AX","PERIOD":"95.438","DECAY_DATE":null,"CENTER_NAME":"EARTH","MEAN_MOTION_DDOT":"0.0000000000000","REV_AT_EPOCH":"2164","INCLINATION":"53.2191","ARG_OF_PERICENTER":"50.7791","LAUNCH_DATE":"2022-07-07","COUNTRY_CODE":"US","BSTAR":"0.00001619000000","NORAD_CAT_ID":"53031","RCS_SIZE":"MEDIUM","ELEMENT_SET_NO":"999","PERIAPSIS":"538.722","SITE":"AFETR","TLE_LINE1":"1 53031U 22076AX  22327.56272053 -.00000030  00000-0  16190-4 0  9990","APOAPSIS":"540.835","MEAN_ELEMENT_THEORY":"SGP4"}];
